line1,line2,validFromUtcTime
1 00000U 00000E   26001.00000000  .00000000  00000-0  27772-4 0    01,2 00000  88.8749  60.3318 0010018 270.0100 270.0637 13.55304340    00,2026-01-01T00:00:00Z
1 00000U 00000E   26002.00000000  .00000000  00000-0  27772-4 0    02,2 00000  88.8749  60.2173 0010018 267.1001 109.1578 13.55304379    03,2026-01-02T00:00:00Z
